[{"OBJECT_NAME":"LYNK TOWER 4","OBJECT_ID":"2023-001AB","EPOCH":"2026-03-09T16:15:30.644928","MEAN_MOTION":15.31819885,"ECCENTRICITY":0.00103213,"INCLINATION":97.3324,"RA_OF_ASC_NODE":128.594,"ARG_OF_PERICENTER":112.3386,"MEAN_ANOMALY":247.895,"EPHEMERIS_TYPE":0,"CLASSIFICATION_TYPE":"U","NORAD_CAT_ID":55034,"ELEMENT_SET_NO":999,"REV_AT_EPOCH":17658,"BSTAR":0.00030013829,"MEAN_MOTION_DOT":9.16e-5,"MEAN_MOTION_DDOT":0},{"OBJECT_NAME":"STARLINK-34648","OBJECT_ID":"2025-167P","EPOCH":"2026-03-09T06:37:36.361056","MEAN_MOTION":15.30198253,"ECCENTRICITY":0.00012785,"INCLINATION":53.1615,"RA_OF_ASC_NODE":28.7842,"ARG_OF_PERICENTER":62.5742,"MEAN_ANOMALY":297.5389,"EPHEMERIS_TYPE":0,"CLASSIFICATION_TYPE":"U","NORAD_CAT_ID":65091,"ELEMENT_SET_NO":999,"REV_AT_EPOCH":3341,"BSTAR":0.0010005854,"MEAN_MOTION_DOT":0.00029391,"MEAN_MOTION_DDOT":0}]
