LYNK TOWER 4            
1 55034U 23001AB  26068.67743801  .00009160  00000+0  30014-3 0  9997
2 55034  97.3324 128.5940 0010321 112.3386 247.8950 15.31819885176588
STARLINK-34648          
1 65091U 25167P   26068.27611529  .00029391  00000+0  10006-2 0  9999
2 65091  53.1615  28.7842 0001278  62.5742 297.5389 15.30198253 33410
